{
  "norad_id": 53190,
  "name": "STARLINK-4332",
  "history": [
    {
      "epoch": "2026-04-13T03:06:29.268288Z",
      "apogee_km": 550.0176896145067,
      "perigee_km": 549.0505867236188,
      "latitude_deg": 5.502313701848516e-05,
      "longitude_deg": -82.78757406570051,
      "height_km": 552.9064684483428,
      "semi_major_axis_km": 6927.671138169063,
      "eccentricity": 6.98e-05,
      "inclination_deg": 97.6029,
      "raan_deg": 165.1591,
      "arg_perigee_deg": 129.5565,
      "mean_anomaly_deg": 230.5724,
      "mean_motion_rev_day": 15.05642507
    },
    {
      "epoch": "2026-04-14T14:11:54.570912Z",
      "apogee_km": 550.2953645168691,
      "perigee_km": 549.0760677188318,
      "latitude_deg": -2.222637847969229e-05,
      "longitude_deg": 110.85720004154444,
      "height_km": 553.0422074175366,
      "semi_major_axis_km": 6927.82271611785,
      "eccentricity": 8.8e-05,
      "inclination_deg": 97.603,
      "raan_deg": 166.6004,
      "arg_perigee_deg": 118.6752,
      "mean_anomaly_deg": 241.4563,
      "mean_motion_rev_day": 15.05593093
    },
    {
      "epoch": "2026-04-15T17:18:45.670752Z",
      "apogee_km": 550.3518492869889,
      "perigee_km": 548.5562176911089,
      "latitude_deg": 6.983235305094787e-05,
      "longitude_deg": 64.14393348193742,
      "height_km": 553.0749079188192,
      "semi_major_axis_km": 6927.591033489049,
      "eccentricity": 0.0001296,
      "inclination_deg": 97.6054,
      "raan_deg": 167.7136,
      "arg_perigee_deg": 128.364,
      "mean_anomaly_deg": 231.7704,
      "mean_motion_rev_day": 15.05668622
    },
    {
      "epoch": "2026-04-16T10:51:28.446048Z",
      "apogee_km": 550.055647146839,
      "perigee_km": 548.9541520847997,
      "latitude_deg": 1.2698735714849797e-05,
      "longitude_deg": 160.9625556920917,
      "height_km": 553.0806457564655,
      "semi_major_axis_km": 6927.641899615819,
      "eccentricity": 7.95e-05,
      "inclination_deg": 97.6012,
      "raan_deg": 168.431,
      "arg_perigee_deg": 158.0646,
      "mean_anomaly_deg": 202.0615,
      "mean_motion_rev_day": 15.05652039
    },
    {
      "epoch": "2026-04-17T21:56:51.993888Z",
      "apogee_km": 550.4143155578313,
      "perigee_km": 548.5524483039844,
      "latitude_deg": 4.8745426299808024e-05,
      "longitude_deg": -5.38155293490087,
      "height_km": 553.1819355026427,
      "semi_major_axis_km": 6927.620381930908,
      "eccentricity": 0.00013438,
      "inclination_deg": 97.6034,
      "raan_deg": 169.8761,
      "arg_perigee_deg": 132.9915,
      "mean_anomaly_deg": 227.1425,
      "mean_motion_rev_day": 15.05659054
    },
    {
      "epoch": "2026-04-18T10:42:28.062432Z",
      "apogee_km": 550.4804259785587,
      "perigee_km": 548.5588325827293,
      "latitude_deg": -2.022822043764008e-05,
      "longitude_deg": 163.21833535604037,
      "height_km": 553.1965190375893,
      "semi_major_axis_km": 6927.656629280644,
      "eccentricity": 0.00013869,
      "inclination_deg": 97.6036,
      "raan_deg": 170.4003,
      "arg_perigee_deg": 129.6658,
      "mean_anomaly_deg": 230.4691,
      "mean_motion_rev_day": 15.05647237
    },
    {
      "epoch": "2026-04-19T18:36:28.376352Z",
      "apogee_km": 550.5049316921713,
      "perigee_km": 548.5333207586473,
      "latitude_deg": -7.780391164418871e-05,
      "longitude_deg": 44.71624398355101,
      "height_km": 553.2019164325256,
      "semi_major_axis_km": 6927.656126225409,
      "eccentricity": 0.0001423,
      "inclination_deg": 97.5982,
      "raan_deg": 171.7096,
      "arg_perigee_deg": 128.9025,
      "mean_anomaly_deg": 231.2328,
      "mean_motion_rev_day": 15.05647401
    },
    {
      "epoch": "2026-04-20T10:33:29.281536Z",
      "apogee_km": 550.7256698526298,
      "perigee_km": 548.5229188714748,
      "latitude_deg": 3.695683272338612e-05,
      "longitude_deg": 165.46300235278775,
      "height_km": 553.5129504744116,
      "semi_major_axis_km": 6927.7612943620525,
      "eccentricity": 0.00015898,
      "inclination_deg": 97.5985,
      "raan_deg": 172.3652,
      "arg_perigee_deg": 138.5005,
      "mean_anomaly_deg": 221.6343,
      "mean_motion_rev_day": 15.05613116
    },
    {
      "epoch": "2026-04-21T15:16:03.981216Z",
      "apogee_km": 550.521261499026,
      "perigee_km": 548.5039299367536,
      "latitude_deg": -7.610289040587742e-05,
      "longitude_deg": 94.81476947295008,
      "height_km": 553.0654011209526,
      "semi_major_axis_km": 6927.6495957178895,
      "eccentricity": 0.0001456,
      "inclination_deg": 97.594,
      "raan_deg": 173.5406,
      "arg_perigee_deg": 119.0171,
      "mean_anomaly_deg": 241.1201,
      "mean_motion_rev_day": 15.0564953
    },
    {
      "epoch": "2026-04-21T21:38:52.530432Z",
      "apogee_km": 550.7951295078674,
      "perigee_km": 548.2776130047532,
      "latitude_deg": 5.3967500557812403e-05,
      "longitude_deg": -0.8883604217555445,
      "height_km": 553.1581530337884,
      "semi_major_axis_km": 6927.67337125631,
      "eccentricity": 0.0001817,
      "inclination_deg": 97.5912,
      "raan_deg": 173.8018,
      "arg_perigee_deg": 116.3539,
      "mean_anomaly_deg": 243.7875,
      "mean_motion_rev_day": 15.05641779
    },
    {
      "epoch": "2026-04-23T03:57:10.512864Z",
      "apogee_km": 550.6877046849158,
      "perigee_km": 548.3257938250435,
      "latitude_deg": -2.622559319945647e-05,
      "longitude_deg": -95.46466150097986,
      "height_km": 553.1027182814883,
      "semi_major_axis_km": 6927.643749254979,
      "eccentricity": 0.00017047,
      "inclination_deg": 97.583,
      "raan_deg": 175.045,
      "arg_perigee_deg": 116.8034,
      "mean_anomaly_deg": 243.3367,
      "mean_motion_rev_day": 15.05651436
    },
    {
      "epoch": "2026-04-24T18:13:58.074816Z",
      "apogee_km": 550.5766602501426,
      "perigee_km": 548.6230384586252,
      "latitude_deg": 3.911476931253325e-05,
      "longitude_deg": 50.32975414297898,
      "height_km": 553.3704105543787,
      "semi_major_axis_km": 6927.736849354384,
      "eccentricity": 0.000141,
      "inclination_deg": 97.5765,
      "raan_deg": 176.6097,
      "arg_perigee_deg": 136.2862,
      "mean_anomaly_deg": 223.8477,
      "mean_motion_rev_day": 15.05621085
    },
    {
      "epoch": "2026-04-25T18:09:28.558656Z",
      "apogee_km": 550.6546360978373,
      "perigee_km": 548.4045299916634,
      "latitude_deg": -4.587168303872018e-05,
      "longitude_deg": 51.4510787654586,
      "height_km": 553.4138702251065,
      "semi_major_axis_km": 6927.66658304475,
      "eccentricity": 0.0001624,
      "inclination_deg": 97.5719,
      "raan_deg": 177.5906,
      "arg_perigee_deg": 136.7747,
      "mean_anomaly_deg": 223.3607,
      "mean_motion_rev_day": 15.05643992
    },
    {
      "epoch": "2026-04-26T18:04:58.759968Z",
      "apogee_km": 551.3880737930831,
      "perigee_km": 547.6687487870704,
      "latitude_deg": 4.306602552797185e-05,
      "longitude_deg": 52.57096148240597,
      "height_km": 553.1826078058886,
      "semi_major_axis_km": 6927.665411290077,
      "eccentricity": 0.00026844,
      "inclination_deg": 97.5681,
      "raan_deg": 178.5689,
      "arg_perigee_deg": 108.5668,
      "mean_anomaly_deg": 251.5851,
      "mean_motion_rev_day": 15.05644374
    },
    {
      "epoch": "2026-04-27T18:00:28.697760Z",
      "apogee_km": 550.7744801973222,
      "perigee_km": 548.3026855493536,
      "latitude_deg": -3.0174107488585547e-05,
      "longitude_deg": 53.69186698449828,
      "height_km": 552.8999772380349,
      "semi_major_axis_km": 6927.675582873338,
      "eccentricity": 0.0001784,
      "inclination_deg": 97.5632,
      "raan_deg": 179.5471,
      "arg_perigee_deg": 103.9432,
      "mean_anomaly_deg": 256.1993,
      "mean_motion_rev_day": 15.05641058
    },
    {
      "epoch": "2026-04-28T17:55:58.645056Z",
      "apogee_km": 551.0966284136912,
      "perigee_km": 547.9445442119186,
      "latitude_deg": -1.0597963128237711e-05,
      "longitude_deg": 54.812420498950665,
      "height_km": 553.0270211346376,
      "semi_major_axis_km": 6927.657586312805,
      "eccentricity": 0.0002275,
      "inclination_deg": 97.5609,
      "raan_deg": 180.525,
      "arg_perigee_deg": 106.345,
      "mean_anomaly_deg": 253.8027,
      "mean_motion_rev_day": 15.05646925
    },
    {
      "epoch": "2026-04-29T17:51:30.627936Z",
      "apogee_km": 550.6595993994624,
      "perigee_km": 549.0897119582851,
      "latitude_deg": -8.374343840266855e-06,
      "longitude_deg": 55.9219711170086,
      "height_km": 553.0944264961554,
      "semi_major_axis_km": 6928.0116556788735,
      "eccentricity": 0.0001133,
      "inclination_deg": 97.5569,
      "raan_deg": 181.5004,
      "arg_perigee_deg": 101.399,
      "mean_anomaly_deg": 258.7364,
      "mean_motion_rev_day": 15.05531503
    },
    {
      "epoch": "2026-04-30T14:35:37.557312Z",
      "apogee_km": 551.0702540143648,
      "perigee_km": 548.667344482953,
      "latitude_deg": 4.7693076571828534e-05,
      "longitude_deg": 104.88862430971427,
      "height_km": 553.2272008940816,
      "semi_major_axis_km": 6928.005799248658,
      "eccentricity": 0.00017342,
      "inclination_deg": 97.5532,
      "raan_deg": 182.3475,
      "arg_perigee_deg": 104.1934,
      "mean_anomaly_deg": 255.9486,
      "mean_motion_rev_day": 15.05533412
    },
    {
      "epoch": "2026-05-02T09:39:28.892736Z",
      "apogee_km": 550.0914121568212,
      "perigee_km": 548.9635883761775,
      "latitude_deg": 1.3062285083706709e-05,
      "longitude_deg": 178.91224254491428,
      "height_km": 553.0495106614442,
      "semi_major_axis_km": 6927.664500266499,
      "eccentricity": 8.14e-05,
      "inclination_deg": 97.5487,
      "raan_deg": 184.1036,
      "arg_perigee_deg": 143.9486,
      "mean_anomaly_deg": 216.1796,
      "mean_motion_rev_day": 15.05644671
    }
  ]
}